property_id,paon,saon,street,locality,town,district,county,postcode
fcd60da5-4e78-4dba-a859-cb2c487514c7,1,FERN COTTAGES,DORKING ROAD,ABINGER HAMMER,DORKING,GUILDFORD,SURREY,RH5 6SA
e9f0c787-6391-4e50-ba5d-13fb808626c7,FLAT 5,"LINFIT MILL, 16",LINFIT LANE,KIRKBURTON,HUDDERSFIELD,KIRKLEES,WEST YORKSHIRE,HD8 0TX
4fe12f13-3c4d-4227-b8b3-eb25ea341c79,FLAT 5,CHARLEMONT,CROOKBARROW ROAD,BROCKHILL VILLAGE,WORCESTER,WYCHAVON,WORCESTERSHIRE,WR5 2PA
d649b71a-b778-47b8-ad1c-17ac47da2fa1,FLAT 3,BANK HOUSE,THE GREEN,DATCHET,SLOUGH,WINDSOR AND MAIDENHEAD,WINDSOR AND MAIDENHEAD,SL3 9JH
9286b482-6993-4c90-b85b-604fe9a18acd,6,SQUARE FOLD,WAKEFIELD ROAD,LEPTON,HUDDERSFIELD,KIRKLEES,WEST YORKSHIRE,HD8 0LX
e0ca8d8a-b0af-4294-b15b-3b1fdde38379,TOP FLOOR FLAT,6,YORK PLACE,CLIFTON,BRISTOL,CITY OF BRISTOL,CITY OF BRISTOL,BS8 1AH
bb4b518b-f997-43ee-83ec-f9d4c520c359,FLAT 1,BEACON COURT,CHESTER ROAD,STREETLY,SUTTON COLDFIELD,WALSALL,WEST MIDLANDS,B74 2HT
65032854-7c8d-4977-8e5f-b5ff57fa9d83,FLAT 5,"STANLEY HOUSE, 27",STRAIGHT ROAD,OLD WINDSOR,WINDSOR,WINDSOR AND MAIDENHEAD,WINDSOR AND MAIDENHEAD,SL4 2RW
19d7dd02-28c7-439e-8c33-5456968657e5,FLAT 1-6,"BIRCHMOOR, 2",ST MICHAELS ROAD,AIGBURTH,LIVERPOOL,LIVERPOOL,MERSEYSIDE,L17 7AR
4b60b34d-d9fd-416b-bc23-6d15d0123da0,APARTMENT 14,"MAYFAIR COURT, 290",PARK ROAD,TIMPERLEY,ALTRINCHAM,TRAFFORD,GREATER MANCHESTER,WA15 6UB
ff5018c0-48a4-4221-9347-1535d777cf29,3,THE MILL,THE GREEN,WICKHAMBREAUX,CANTERBURY,CANTERBURY,KENT,CT3 1RQ
e5555a77-c587-4fee-b9e3-d46514c3d352,FLAT 11,WATERSEDGE,BRIDGE STREET,WICKHAM,FAREHAM,WINCHESTER,HAMPSHIRE,PO17 5PX
209f3519-c416-4866-80bb-5988ba9f81ca,6,OAKTREE COURT,PORTLAND DRIVE,WILLEN,MILTON KEYNES,MILTON KEYNES,MILTON KEYNES,MK15 9LP
cdc4e359-772e-4da0-a926-c9f3e77082b8,FLAT 26,CECILY COURT,CAMBRIDGE WAY,MINCHINHAMPTON,STROUD,STROUD,GLOUCESTERSHIRE,GL6 9DN
3a448510-8773-486e-b31f-7ea68af05cd6,2,THE COURTYARD,HIGH STREET,ISLIP,KETTERING,EAST NORTHAMPTONSHIRE,NORTHAMPTONSHIRE,NN14 3JS
c94be5af-d92b-4d9b-a60a-cfb6d56a9056,FLAT 4,51,WESTERN ROAD,HAGLEY,STOURBRIDGE,BROMSGROVE,WORCESTERSHIRE,DY9 0JX
45d2ba2c-33ce-4d55-a17c-e4ae6144d345,BASEMENT FLOOR REAR FLAT,92,PEMBROKE ROAD,CLIFTON,BRISTOL,CITY OF BRISTOL,CITY OF BRISTOL,BS8 3EG
f8217a5c-b5e6-404a-be75-4a0c57b38ba2,14,VYNER HOUSE,FRONT STREET,ACOMB,YORK,YORK,YORK,YO24 3DW
7ff4311c-0884-4161-ad78-364943688b4e,15,KIRKLANDS,CARR LANE,THORNER,LEEDS,LEEDS,WEST YORKSHIRE,LS14 3HB
5c2d628a-7dae-47a1-9159-6c0b6ded299e,9,HATFIELD HOUSE,WHITTLE CLOSE,ASH VALE,ALDERSHOT,GUILDFORD,SURREY,GU12 5SX
6876b69b-747c-4563-b79e-6bc46fdf22e5,9,BRUCE HALL MEWS,BRUDENELL ROAD,TOOTING,LONDON,WANDSWORTH,GREATER LONDON,SW17 8DF
3505b7b5-b0c7-499d-b32e-7ba6ffa8e389,FLAT 12A,"PARK VIEW COURT, 10",CENTRAL DRIVE,ROMILEY,STOCKPORT,STOCKPORT,GREATER MANCHESTER,SK6 4QH
c540e063-2d56-4164-bd42-f7fd08ecbefc,12,OAKDENE,POUCHLANDS DRIVE,SOUTH CHAILEY,LEWES,LEWES,EAST SUSSEX,BN8 4QE
d3783a56-b5ed-4636-9591-9785f2f5574d,APARTMENT 4,RISHWORTH PALACE,RISHWORTH MILL LANE,RISHWORTH,SOWERBY BRIDGE,CALDERDALE,WEST YORKSHIRE,HX6 4RY
188647e0-c9e2-4f06-9390-0fae5e182672,1B,ST. PETERS HOUSE,BANK STREET,BISHOPS WALTHAM,SOUTHAMPTON,WINCHESTER,HAMPSHIRE,SO32 1AE
971ef2b4-8bc4-419d-94da-222583773398,FLAT 2,35,STATION ROAD,PORTSLADE,BRIGHTON,BRIGHTON AND HOVE,BRIGHTON AND HOVE,BN41 1GB
6ba5a253-8ae4-4350-8bdf-325001dbef3b,FLAT 17,THE MEADS,WYNDHAM ROAD,SILVERTON,EXETER,MID DEVON,DEVON,EX5 4HL
6077d42b-0260-467b-9adf-b252a811599c,FLAT P3,BROADFOLD HALL,DEAN HOUSE LANE,LUDDENDEN,HALIFAX,CALDERDALE,WEST YORKSHIRE,HX2 6TW
e37e4157-9907-4099-a9b0-b6a31685d8a5,16,WESTERN LODGE,COKEHAM ROAD,SOMPTING,LANCING,ADUR,WEST SUSSEX,BN15 0JB
8159cd2c-0114-4e56-a3b2-fb02013ccc1b,FLAT 2,59,FERN AVENUE,JESMOND,NEWCASTLE UPON TYNE,NEWCASTLE UPON TYNE,TYNE AND WEAR,NE2 2QU
0c3b17b9-7880-4223-944d-45f1def85271,14,WESTERGATE MEWS,NYTON ROAD,WESTERGATE,CHICHESTER,ARUN,WEST SUSSEX,PO20 3YP
0ac56018-9a12-41bc-a647-97dea1fa5c5e,1,BEECHWOOD COURT,LONDON ROAD,RIVER,DOVER,DOVER,KENT,CT16 3PP
4b4a696d-dea9-4a1c-99a8-b84d258228a3,FIRST FLOOR FLAT,19,WESTBURY ROAD,WESTBURY ON TRYM,BRISTOL,CITY OF BRISTOL,CITY OF BRISTOL,BS9 3AY
6504b4e8-594a-4c87-aa0a-cfe7fa6804e6,2,GREY POINT HOUSE,THE SQUARE,FINDON,WORTHING,ARUN,WEST SUSSEX,BN14 0TE
9008fda6-16bd-4603-bf0b-7b596d9218a9,FLAT 2,"THE HOLME, 21",POST STREET,GODMANCHESTER,HUNTINGDON,HUNTINGDONSHIRE,CAMBRIDGESHIRE,PE29 2BA
3a819662-bbc1-4b97-aeb6-fd13978d5200,3,ALMOND COTTAGES,WATKIN LANE,LOSTOCK HALL,PRESTON,SOUTH RIBBLE,LANCASHIRE,PR5 5HD
94a524db-a14c-406a-a6f5-ecef0ee1e4c9,FLAT 14,ALEXANDER COURT,VICTORIA CLOSE,CHESHUNT,WALTHAM CROSS,BROXBOURNE,HERTFORDSHIRE,EN8 9EP
894e5554-4d2c-4680-8075-61f8d54a5fd6,FLAT 1,14,SHRUBLAND ROAD,LEYTON,LONDON,WALTHAM FOREST,GREATER LONDON,E10 7EP
88b5e7ac-d442-4a22-be22-617dec013d82,FLAT 21,THE TRUMAN,MALTINGS PARK,WEST BERGHOLT,COLCHESTER,COLCHESTER,ESSEX,CO6 3TJ
0caa2bb4-c2d5-46ad-9f8f-ecc84bf08aab,4,FORGE STEPS,MAKENEY,MILFORD,BELPER,AMBER VALLEY,DERBYSHIRE,DE56 0RU
506b3ed3-b31c-4547-a988-abf6bf9d0bce,FLAT 2,29,ALEXANDER ROAD,ACOCKS GREEN,BIRMINGHAM,BIRMINGHAM,WEST MIDLANDS,B27 6ER
ab55547d-f2c0-4f86-8aa3-1a653c3627f9,FLAT 3,CROMARTY HOUSE,MOUNT CRESCENT,WARLEY,BRENTWOOD,BRENTWOOD,ESSEX,CM14 5DA
9d9553aa-2229-44dc-9788-f2c4db97fd49,1,HALE GREEN COURT,HILLSIDE ROAD,HALE,ALTRINCHAM,TRAFFORD,GREATER MANCHESTER,WA15 8BU
d5fc82ca-5e62-4200-91ab-ebd80c76d1f0,FLAT 7,"TOWER HOUSE, 1",HIGH ROAD,BYFLEET,WEST BYFLEET,WOKING,SURREY,KT14 7QP
26bf21e4-4713-4ad0-8ad4-996d04f2e96a,5A,REEDS COTTAGES,DAYS POTTLES LANE,EXMINSTER,EXETER,TEIGNBRIDGE,DEVON,EX6 8AX
2ebb16e1-94ff-4fb4-9072-320b412a3de6,FLAT 10,SARISBURY GATE,DOVE GARDENS,PARK GATE,SOUTHAMPTON,FAREHAM,HAMPSHIRE,SO31 7FP
1dc3611a-c3ea-44a0-9088-6c591c55fd8d,FLAT 5,"BLUE HAZE, 18",MARINE ROAD,WALMER,DEAL,DOVER,KENT,CT14 7DN
c92c5a40-3518-46e1-b3e8-24c5f7507e00,FLAT 7,NORTHERWOOD HOUSE,SWAN GREEN,EMERY DOWN,LYNDHURST,NEW FOREST,HAMPSHIRE,SO43 7DT
a02fbfaa-e8cd-47ef-aacd-a02e778d5403,6,MEADOW VIEW,LONDON ROAD,OADBY,LEICESTER,OADBY AND WIGSTON,LEICESTERSHIRE,LE2 5EA
ed291e33-c772-46e1-a59d-7c1d4b9811b5,FLAT 4,BOWMER HOUSE,TIDEYS MILL,PARTRIDGE GREEN,HORSHAM,HORSHAM,WEST SUSSEX,RH13 8WA
0a73a9fe-65aa-4d9a-8dd2-067cb0186183,4,CHURCH COURT,BRIDLINGTON ROAD,BEEFORD,DRIFFIELD,EAST RIDING OF YORKSHIRE,EAST RIDING OF YORKSHIRE,YO25 8AN
353b6242-0e30-4c54-bf36-e0727d0203c8,8,BLUE PRYOR COURT,BRANDON ROAD,CHURCH CROOKHAM,FLEET,HART,HAMPSHIRE,GU52 0YD
ffdb31db-eff8-41d8-aa98-5bb6ab588020,FLAT 3,1,OSBORNE ROAD,CLIFTON,BRISTOL,CITY OF BRISTOL,CITY OF BRISTOL,BS8 2HA
39b448d5-980b-4baf-86df-1754a7675439,3,BROOKSIDE BARNS,TARPORLEY ROAD,STRETTON,WARRINGTON,WARRINGTON,WARRINGTON,WA4 4DP
b0434f60-2453-41f0-8f42-15098894cb72,9,BIRCH COURT,HAZEL WAY,CHIPSTEAD,COULSDON,REIGATE AND BANSTEAD,SURREY,CR5 3PJ
7294eab6-dfbb-4973-bf87-d9d2f1d7cc5e,GROUND FLOOR FLAT,4,CLARE ROAD,COTHAM,BRISTOL,CITY OF BRISTOL,CITY OF BRISTOL,BS6 5TB
c43408d4-af37-417e-aaa3-f7926778905d,FLAT 2,40A,NEW EXETER STREET,CHUDLEIGH,NEWTON ABBOT,TEIGNBRIDGE,DEVON,TQ13 0DA
31452ed7-4345-4404-9b33-37d22925dcea,FLAT 4,GRAHAM HOUSE,CHESTER ROAD,STREETLY,SUTTON COLDFIELD,WALSALL,WEST MIDLANDS,B74 3DY
28ec0720-130e-4e20-83bd-5701741dc0d5,3,THE OLD RISELEY STORES,BASINGSTOKE ROAD,RISELEY,READING,WOKINGHAM,WOKINGHAM,RG7 1QF
a91343dc-1f7b-4b88-80da-568cba7c1635,BASEMENT FLAT,94,REGINALD ROAD,BEXHILL-ON-SEA,BEXHILL-ON-SEA,ROTHER,EAST SUSSEX,TN39 3PG
b8db68a4-c381-4133-bfbe-8f10e45064b0,FLAT 18,THE GREEN,HUNSTANTON ROAD,DERSINGHAM,KING'S LYNN,KING'S LYNN AND WEST NORFOLK,NORFOLK,PE31 6RG
c92cb112-eb3d-4da0-b478-f96dc7a24517,2,KIRKLANDS,CARR LANE,THORNER,LEEDS,LEEDS,WEST YORKSHIRE,LS14 3HB
1e732f40-7798-41cd-ac45-35e0f6b62827,FLAT 6,LEICESTER LODGE,GRANGE AVENUE,RIBBLETON,PRESTON,PRESTON,LANCASHIRE,PR2 6PG
507dcbc3-5fa0-4b07-af23-1603d0777416,5,GORE COTTAGES,GREEN STREET GREEN ROAD,LANE END,DARTFORD,DARTFORD,KENT,DA2 7HR
49180b2f-ad2f-46df-a81b-9a1fd7f5c2f3,FLAT 5,"TOWER HOUSE, 1",HIGH ROAD,BYFLEET,WEST BYFLEET,WOKING,SURREY,KT14 7QP
8d0d8f09-56fd-4cc1-889a-76bb56278993,FLAT 7,CROWN HOUSE,SCHOOL HILL,LAMBERHURST,TUNBRIDGE WELLS,TUNBRIDGE WELLS,KENT,TN3 8HY
8e4e548b-37da-4a81-9951-9c1d34bb0e62,FLAT 1,LODGE COURT,HIGH ROAD,LEAVESDEN,WATFORD,WATFORD,HERTFORDSHIRE,WD25 7PQ
4a1891d6-f14b-4f4c-bcea-caf6f2e727c1,APARTMENT 1008,"FRESH, 138",CHAPEL STREET,SALFORD,SALFORD,SALFORD,GREATER MANCHESTER,M3 6DE
eaa5db1c-8d17-4683-8224-3c6b226d6444,FLAT B,THE OLD CHAPEL,HIGH STREET,TICEHURST,WADHURST,ROTHER,EAST SUSSEX,TN5 7BE
42627b0b-7bc8-479a-8984-50a69aa0f891,5,ROSEHILL HOUSE,PEPPARD ROAD,EMMER GREEN,READING,READING,READING,RG4 8XB
e126769f-a0c6-42b8-803f-2012b3fd7079,FLAT 17,GROSVENOR COURT,LIME TREE AVENUE,TETTENHALL WOOD,WOLVERHAMPTON,WOLVERHAMPTON,WEST MIDLANDS,WV6 8HB
1c345026-8bd7-459a-a0db-26672579bf69,APARTMENT 32,THE WHARF,WOOL ROAD,DOBCROSS,OLDHAM,OLDHAM,GREATER MANCHESTER,OL3 5QR
fb5ba36e-341b-4315-aee6-1c55a68de51c,FLAT 2,OTTERBOURNE HOUSE,MAIN ROAD,OTTERBOURNE,WINCHESTER,WINCHESTER,HAMPSHIRE,SO21 2EQ
02c256f4-f8d3-43dd-9d9c-9e9750e68210,FLAT 4,ELSTON LODGE,GRANGE AVENUE,RIBBLETON,PRESTON,PRESTON,LANCASHIRE,PR2 6PF
9a9491b2-04b4-4786-b922-f097d14432cc,FLAT 14,CHARLEMONT,CROOKBARROW ROAD,BROCKHILL VILLAGE,WORCESTER,WYCHAVON,WORCESTERSHIRE,WR5 2PA
aa532da6-2b3d-47e9-a087-115014336afb,3,BROOKHILL COTTAGES,BROOKHILL ROAD,COPTHORNE,CRAWLEY,MID SUSSEX,WEST SUSSEX,RH10 3QL
464843a9-855e-4898-828a-3ef7d7d77c71,FLAT 15,WHITE HART HOUSE,PARK STREET,COLNBROOK,SLOUGH,SLOUGH,SLOUGH,SL3 0HS
57442d4a-cb95-42c3-9ab6-1b7d17158fb6,FLAT 1,337,HIGH STREET,CONNAHS QUAY,DEESIDE,FLINTSHIRE,FLINTSHIRE,CH5 4DP
182efe09-a912-4b62-9032-f2ed842ecce3,FLAT 3,OAKTREES COURT,OAKTREES,ASH,ALDERSHOT,GUILDFORD,SURREY,GU12 6QE
b3ea0f43-8a8d-4bc2-b0da-a3ea8711d54e,FLAT 1,DANESTREAM HOUSE,SEA ROAD,MILFORD ON SEA,LYMINGTON,NEW FOREST,HAMPSHIRE,SO41 0DA
9edebbce-faaf-4379-8796-f2053cdcdf74,15,FAIRHAVEN COURT,VICTORIA ESPLANADE,WEST MERSEA,COLCHESTER,COLCHESTER,ESSEX,CO5 8DE
78ee2cc5-4c1f-472d-8338-2f3f8a3c8ec8,FLAT 41,MANHATTAN COURT,TONGDEAN LANE,PRESTON,BRIGHTON,BRIGHTON AND HOVE,BRIGHTON AND HOVE,BN1 6XZ
baebe610-fe95-4b1f-b307-5e705057d47f,30,MEADOW COURT,LINKS ROAD,GORLESTON,GREAT YARMOUTH,GREAT YARMOUTH,NORFOLK,NR31 6LB
b6e2faa9-cd8a-4902-b06f-1d1f45aba117,3,WESTFIELD COTTAGES,BREACH LANE,LOWER HALSTOW,SITTINGBOURNE,SWALE,KENT,ME9 7DD
c5f1ec5a-5605-474b-9df9-2a4195573a95,8,ROSEHILL HOUSE,PEPPARD ROAD,EMMER GREEN,READING,READING,READING,RG4 8XB
3363269b-fa69-47e4-a78b-0915bf97c2a3,3,PORTWAY COTTAGES,READING ROAD,EAST HENDRED,WANTAGE,VALE OF WHITE HORSE,OXFORDSHIRE,OX12 8JE
2112bce6-f65f-433d-a046-f1f949f544bb,39,OAKTREE COURT,PORTLAND DRIVE,WILLEN,MILTON KEYNES,MILTON KEYNES,MILTON KEYNES,MK15 9LP
b86dd9e2-5ec5-4d0b-aed3-620f6318fa32,1,THE OLD SCHOOL,WISBECH ROAD,LITTLEPORT,ELY,EAST CAMBRIDGESHIRE,CAMBRIDGESHIRE,CB6 1PR
48e4ac19-90e3-46b7-921e-8847d7c1cbcc,FLAT 31,BOVINGDON COURT,WINDSOR CLOSE,BOVINGDON,HEMEL HEMPSTEAD,DACORUM,HERTFORDSHIRE,HP3 0QU
9e439960-7635-4daf-8ef3-ad4690ed9d54,18,BEECHWOOD COURT,LONDON ROAD,RIVER,DOVER,DOVER,KENT,CT16 3PP
69198a0a-ccb5-47d4-82e6-18acb0079c84,FLAT 2,120,BATH ROAD,BITTON,BRISTOL,SOUTH GLOUCESTERSHIRE,SOUTH GLOUCESTERSHIRE,BS30 6HS
c9f0590d-dc19-464c-80dd-db6bb6a397cf,FLAT 1-5,"ORMONDE HOUSE, 6",PRIORY WAY,DATCHET,SLOUGH,WINDSOR AND MAIDENHEAD,WINDSOR AND MAIDENHEAD,SL3 9JQ
a7f41f06-3c44-445d-8c6c-0da48c399064,FLAT 1-2,48,DEVONSHIRE ROAD,PRINCES PARK,LIVERPOOL,LIVERPOOL,MERSEYSIDE,L8 3TZ
498f9f25-cdab-424d-a988-93891fcb9fe9,FLAT 1,22 - 24,WILLIAM ROAD,WEST BRIDGFORD,NOTTINGHAM,RUSHCLIFFE,NOTTINGHAMSHIRE,NG2 7QD
e2d46159-6b53-40ea-8c1f-b8646794705a,2,VICTORIA COTTAGES,CHAPEL LANE,STAPLEHURST,TONBRIDGE,MAIDSTONE,KENT,TN12 0AN
d0c2bbd4-705b-4faf-aef6-3ea605d4616c,5,CROMWELL COURT,CROMWELL ROAD,WARLEY,BRENTWOOD,BRENTWOOD,ESSEX,CM14 5EA
0129ddf0-379a-4223-97b9-a08aca15d279,FLAT 5,TREDEGAR MEWS,TREDEGAR TERRACE,RISCA,NEWPORT,CAERPHILLY,CAERPHILLY,NP11 6BT
49147632-1050-4f24-8b8d-70b2c37d79a0,FLAT 3-4,48,DEVONSHIRE ROAD,PRINCES PARK,LIVERPOOL,LIVERPOOL,MERSEYSIDE,L8 3TZ
43cb41d1-64b6-4df4-ad2b-8c8ca03f7058,2,BLUE HOUSE COTTAGES,CHARLTON LANE,EAST SUTTON,MAIDSTONE,MAIDSTONE,KENT,ME17 3DL
0c638156-b505-4cd0-a9f9-1f6c47d2c8cf,FLAT 6,"BELVEDERE, 6",WORTLEY ROAD,HIGHCLIFFE,CHRISTCHURCH,CHRISTCHURCH,DORSET,BH23 5DT
2c3b468f-bd84-40a7-a2fd-00bacf62aac2,FLAT 6,PARADISE COURT,PARADISE LANE,HALL GREEN,BIRMINGHAM,BIRMINGHAM,WEST MIDLANDS,B28 0DT
7d25d839-24c1-49d8-b738-27e3544b43fc,YEW TREE APARTMENT,OAKFORD HOUSE,SHALDON ROAD,COMBEINTEIGNHEAD,NEWTON ABBOT,TEIGNBRIDGE,DEVON,TQ12 4RR
c075952e-5523-47ce-9359-113c2eb8b12f,FLAT 22,"HAYSTOUN HOUSE, 76",CHURCH STREET,WILLINGDON,EASTBOURNE,WEALDEN,EAST SUSSEX,BN22 0HX
d6f41732-3fb7-4ab8-8a61-10486f34880e,4,ELIZABETH COTTAGES,HIGH ROAD,COOKHAM,MAIDENHEAD,WINDSOR AND MAIDENHEAD,WINDSOR AND MAIDENHEAD,SL6 9HT
52207cae-3a3f-4e27-bb98-1a1970f0ec95,3A,TOWER COTTAGES,MIDDLETON ROAD,HEYSHAM,MORECAMBE,LANCASTER,LANCASHIRE,LA3 2RD
181f9e2c-9404-405c-9398-5b036b2384de,FLAT 3A,ENTERPRISE HOUSE,HIGH STREET,BUXTED,UCKFIELD,WEALDEN,EAST SUSSEX,TN22 4JZ
194fafd2-5a52-49d6-ad3b-d954bacb2d1e,FLAT 3,MILLARDS COURT,MILLARDS HILL,MIDSOMER NORTON,RADSTOCK,BATH AND NORTH EAST SOMERSET,BATH AND NORTH EAST SOMERSET,BA3 2XL
ac79aa12-33ee-4b91-a36f-ab02330a42c2,5,EGYPT,STROUD ROAD,NAILSWORTH,STROUD,STROUD,GLOUCESTERSHIRE,GL6 0AE
abeb82a8-7504-4936-8732-9b4a6d20d45c,1,HAZELWOOD COTTAGES,HIGH STREET,TICEHURST,WADHURST,ROTHER,EAST SUSSEX,TN5 7AL
dddd7a4b-0d6c-4878-a5f3-3e122e47f0ca,FLAT 26,"HAYSTOUN HOUSE, 76",CHURCH STREET,WILLINGDON,EASTBOURNE,WEALDEN,EAST SUSSEX,BN22 0HX
245b8b4c-241e-46f3-8e4b-30fcfc1da39c,53,BADGER COURT,BROAD HAPENNY,WRECCLESHAM,FARNHAM,WAVERLEY,SURREY,GU10 4TZ
b9e0e32d-9150-42ec-8a2c-11c2f3a20390,FLAT 12,MEADOWCROFT,STORRS PARK,BOWNESS ON WINDERMERE,WINDERMERE,SOUTH LAKELAND,CUMBRIA,LA23 3JG
56ea6bca-e401-421d-ad88-5dee7221f34b,FIRST FLOOR FLAT,"CHELSFIELD, 18",THE AVENUE,SNEYD PARK,BRISTOL,CITY OF BRISTOL,CITY OF BRISTOL,BS9 1PE
4491dd01-e222-4b64-860e-f361317d8166,1,ORCHARD LEIGH VILLAS,TWO DELLS LANE,ORCHARD LEIGH,CHESHAM,CHILTERN,BUCKINGHAMSHIRE,HP5 3RD
33d51880-74d0-47c1-b212-4682f8fd8e51,FLAT 19,OLD RECTORY COURT,STATION ROAD,MARKS TEY,COLCHESTER,COLCHESTER,ESSEX,CO6 1EE
0d8f0658-02e7-4795-8e9a-e39452119235,FLAT 45,DOUGLAS BADER COURT,HOWTH DRIVE,WOODLEY,READING,WOKINGHAM,WOKINGHAM,RG5 3AF
7d544c85-bfdc-4813-8395-0c6db34f0c6a,1,HEATH VIEW COTTAGES,COPTHORNE COMMON,COPTHORNE,CRAWLEY,MID SUSSEX,WEST SUSSEX,RH10 3LF
28afad1d-c3f0-4e6e-bdf5-761947343e37,FLAT 3,13,GLENTWORTH ROAD,REDLAND,BRISTOL,CITY OF BRISTOL,CITY OF BRISTOL,BS6 7EG
9a10d8cc-d7c0-4d87-b242-02c6b7575c05,FLAT,161,MOLESWORTH ROAD,STOKE,PLYMOUTH,CITY OF PLYMOUTH,CITY OF PLYMOUTH,PL3 4AJ
016de9fd-bfbe-4a12-91d0-765a18b7a4c3,FLAT 5,39,TALBOT ROAD,HIGHGATE,LONDON,HARINGEY,GREATER LONDON,N6 4QS
a283ba32-135b-4bee-8f5f-fe9ac0daaf88,FLAT 50,OYSTER QUAY,PORT WAY,PORT SOLENT,PORTSMOUTH,PORTSMOUTH,PORTSMOUTH,PO6 4TE
8ea66673-5092-4592-a36a-9ca9ee28cc5c,FLAT 9,DELVES HOUSE WEST,DELVES CLOSE,RINGMER,LEWES,LEWES,EAST SUSSEX,BN8 5EW
4bb8f71e-89e1-49db-995c-5ce2787deb68,2,PRIMROSE COTTAGES,OTHAM STREET,OTHAM,MAIDSTONE,MAIDSTONE,KENT,ME15 8RN
d91538eb-24b7-4cee-af7a-453cad8497bb,FLAT 3,STAIR HOUSE,SCHOOL HILL,LAMBERHURST,TUNBRIDGE WELLS,TUNBRIDGE WELLS,KENT,TN3 8HX
7297c3ad-1e14-4cd4-b3c4-52196fbb110b,APARTMENT 11,EAST HALL,LODGE ROAD,FELTWELL,THETFORD,KING'S LYNN AND WEST NORFOLK,NORFOLK,IP26 4DP
07662c70-3be0-4afd-afae-7eae6b43def3,FLAT 1,"FAIRBAIRN HALL, 310",BARKING ROAD,PLAISTOW,LONDON,NEWHAM,GREATER LONDON,E13 8HL
85b6761d-3c89-419c-9e56-d0fa9942ed59,FLAT 7,"ANGMERING COURT, 24",SEA LANE,EAST PRESTON,LITTLEHAMPTON,ARUN,WEST SUSSEX,BN16 1NF
04c71313-6784-42d7-a24b-23786a016c46,2,SCHOOL HOUSE COURT,SHRIVENHAM ROAD,HIGHWORTH,SWINDON,SWINDON,SWINDON,SN6 7BZ
0f7c6e69-9992-4f28-a810-717601ca004e,TOP FLAT,10,THE CIRCUS,BATH,BATH,BATH AND NORTH EAST SOMERSET,BATH AND NORTH EAST SOMERSET,BA1 2EW
39230ab9-60d6-48ce-a9ae-184fa451b421,FLAT 3,"THE OLD SCHOOL, 80",STARTS HILL ROAD,FARNBOROUGH,ORPINGTON,BROMLEY,GREATER LONDON,BR6 7AS
6b78575d-e469-46bf-b438-579813c57523,FLAT 18,"ASHGROVE, 43",THE VILLAGE,HAXBY,YORK,YORK,YORK,YO32 2HY
88e25d73-8c01-497a-977b-cf8591e868b7,FLAT 1-2,46,DEVONSHIRE ROAD,PRINCES PARK,LIVERPOOL,LIVERPOOL,MERSEYSIDE,L8 3TZ
a113ef0a-d098-4603-aa75-9df36e1f3259,5,ROSE & CROWN COTTAGES,WALPOLE BANK,WALPOLE ST ANDREW,WISBECH,KING'S LYNN AND WEST NORFOLK,NORFOLK,PE14 7JB
7862bc2c-4188-458b-85fe-fe1bb085d32d,FLAT 4,64,LAUREL ROAD,HAMPTON HILL,HAMPTON,RICHMOND UPON THAMES,GREATER LONDON,TW12 1JH
b9c8e97b-68b3-482d-9e43-e672fce39233,3,SOUTHVIEW COTTAGES,GODDARDS LANE,SHERFIELD ON LODDON,HOOK,BASINGSTOKE AND DEANE,HAMPSHIRE,RG27 0EW
f7bc4f8a-af55-4d87-8adf-f01e25f9ae7c,FLAT 9,GROVE HOUSE,FORE STREET,TOPSHAM,EXETER,EXETER,DEVON,EX3 0HF
f26cab51-a52f-440b-8f36-d32f5845b5f6,FLAT 7,THE MOTE,MEADOW LANE,NEW ASH GREEN,LONGFIELD,SEVENOAKS,KENT,DA3 8PW
f79bc2e3-7390-4d6f-9f8d-ea4c7b25cb29,FLAT 53,"HOMEBELL HOUSE, 2",NORTHGATE,ALDRIDGE,WALSALL,WALSALL,WEST MIDLANDS,WS9 8QB
feb9e9e8-9f4a-4d2b-a777-43bcdb992f8b,FLAT 8,"HAYSTOUN HOUSE, 76",CHURCH STREET,WILLINGDON,EASTBOURNE,WEALDEN,EAST SUSSEX,BN22 0HX
a9ad6fb9-f107-4e88-9541-0dead4071033,FLAT 55,"MIRAGE, 21",HARBOUR ROAD,PORTISHEAD,BRISTOL,NORTH SOMERSET,NORTH SOMERSET,BS20 7AJ
95d53988-20e2-4d0e-b42d-cb85eab692cc,FIRST FLOOR FLAT,105,ASH LANE,RUSTINGTON,LITTLEHAMPTON,ARUN,WEST SUSSEX,BN16 3BS
38a1b263-3c4c-4c52-a19f-1fa3f50336c7,1,THE LODGE,KINGSWOOD FIRS,GRAYSHOTT,HINDHEAD,EAST HAMPSHIRE,HAMPSHIRE,GU26 6EU
dece3782-adc7-409a-aa8f-c8b26a103311,5,HOLMSTOUN,HOLM CLOSE,WOODHAM,ADDLESTONE,WOKING,SURREY,KT15 3QN
974aa0c0-d8c1-4955-ad5a-0b6922f2aa3b,4,CHAPLIN HOUSE,THE STREET,BRADWELL,BRAINTREE,BRAINTREE,ESSEX,CM77 8EG
c67badde-c837-4161-9390-ffde2ae5fefb,6,NUTBRIDGE COTTAGES,STATION ROAD,WOODMANCOTE,CHELTENHAM,TEWKESBURY,GLOUCESTERSHIRE,GL52 9HR
0e2d64bd-4ebe-4b5e-8f5d-f39ad4a36963,2,CROSSWAYS,BATH ROAD,PAULTON,BRISTOL,BATH AND NORTH EAST SOMERSET,BATH AND NORTH EAST SOMERSET,BS39 7PB
13e8550c-febe-456f-8a3d-7bb7c36b2480,3,THE OLD SCHOOL HOUSE,CHURCH STREET,ROWHEDGE,COLCHESTER,COLCHESTER,ESSEX,CO5 7EE
72e5a74e-21f6-49e3-9990-c0ca325b2d2f,FLAT 2,SAWYERS COURT,CHELMSFORD ROAD,SHENFIELD,BRENTWOOD,BRENTWOOD,ESSEX,CM15 8RH
f8c8cb2a-5734-457a-9452-2a025d155ba5,FLAT 3,"WESSEX COURT, 71",SOUTH EAST ROAD,SHOLING,SOUTHAMPTON,SOUTHAMPTON,SOUTHAMPTON,SO19 8PL
34ab7669-23bc-4f8f-a71f-e7015797bba5,FLAT 38,"BARNES WALLIS COURT, 28",OYSTER LANE,BYFLEET,WEST BYFLEET,WOKING,SURREY,KT14 7HJ
09c330a0-c9a0-4642-bf39-dc8522a0dbad,1,GRANGE COTTAGES,CHEVET LANE,NOTTON,WAKEFIELD,WAKEFIELD,WEST YORKSHIRE,WF4 2PB
b4fed7ee-48cc-41f3-9dd7-2f6774f5e5a6,FLAT 10,"PINNER COURT, 313",HIGH STREET,HARBORNE,BIRMINGHAM,BIRMINGHAM,WEST MIDLANDS,B17 9QL
7e9db5ea-9d99-402b-84fc-dc8fecf369e0,FLAT 12,THE MOTE,MEADOW LANE,NEW ASH GREEN,LONGFIELD,SEVENOAKS,KENT,DA3 8PW
32199e10-b33f-4b02-9f99-7f3cf837029a,FLAT 8,"DARLASTON COURT, 123",MAIN ROAD,MERIDEN,COVENTRY,SOLIHULL,WEST MIDLANDS,CV7 7NJ
57817331-bc26-42ee-b464-0181ce58b90d,FLAT 307,HOULDSWORTH MILL,WATERHOUSE WAY,REDDISH,STOCKPORT,STOCKPORT,GREATER MANCHESTER,SK5 6DD
f7a115b4-7d69-483c-abdf-cc0a075afc4a,FLAT 18,ALDINGBOURNE HOUSE,ALDINGBOURNE DRIVE,CROCKERHILL,CHICHESTER,ARUN,WEST SUSSEX,PO18 0LG
d24b1440-e319-4b3e-b1b8-d6e01fe6df8d,FLAT 3,12,PARK AVENUE,ROUNDHAY,LEEDS,LEEDS,WEST YORKSHIRE,LS8 2JH
85c98165-b882-4102-9508-b44f54cde68b,FLAT 8,THE ABBEY,HAMMERWOOD ROAD,ASHURST WOOD,EAST GRINSTEAD,MID SUSSEX,WEST SUSSEX,RH19 3SA
d5069197-9f57-4acb-ad4a-1559b683e2c1,FLAT 9,FROBISHER COURT,MARITIME AVENUE,MARCHWOOD,SOUTHAMPTON,NEW FOREST,HAMPSHIRE,SO40 4AD
0451cf87-67ab-45f0-8b25-29fd22e87dec,STABLE COTTAGE,WIGANTHORPE COURT,WIGANTHORPE,TERRINGTON,YORK,RYEDALE,NORTH YORKSHIRE,YO60 6NU
3be11933-d188-48b8-aff0-fa8a30ede3be,FIRST FLOOR FLAT,51,ST JOHNS ROAD,CLIFTON,BRISTOL,CITY OF BRISTOL,CITY OF BRISTOL,BS8 2HG
3dd1d7b8-8684-4125-b403-8a4b7132b537,FLAT 10,"NELSON COURT, 70",TRAFALGAR ROAD,MOSELEY,BIRMINGHAM,BIRMINGHAM,WEST MIDLANDS,B13 8BU
8bd52fa9-dd2e-4e7d-93ae-acd62de8efad,FLAT 1,7,GLOUCESTER ROW,CLIFTON,BRISTOL,CITY OF BRISTOL,CITY OF BRISTOL,BS8 4AW
04a37bea-6599-47b6-b9e8-862fd15bd735,FLAT 5,"SOUTHWOOD COURT, 1",SOUTHWOOD AVENUE,WALKFORD,CHRISTCHURCH,CHRISTCHURCH,DORSET,BH23 5RL
f12e75fd-b132-410a-b1a9-7b05e44cf749,FLAT 8,BLENHEIM HOUSE,FONTWELL ROAD,BRANSTON,BURTON-ON-TRENT,EAST STAFFORDSHIRE,STAFFORDSHIRE,DE14 3BJ
3d38d0ac-1b06-4805-a1f8-1892d4c38afd,7,CHULMLEIGH COURT,GORDON ROAD,SHENFIELD,BRENTWOOD,BRENTWOOD,ESSEX,CM15 8LS
